CUTE-1 (CO-55)          
1 27844U 03031E   24267.50473416  .00000902  00000+0  41591-3 0  9996
2 27844  98.6802 273.1876 0008941 213.3209 146.7407 14.23480921101775
CUBESAT XI-IV (CO-57)   
1 27848U 03031J   24267.47844118  .00000781  00000+0  36700-3 0  9998
2 27848  98.6833 273.3491 0008596 231.4759 128.5649 14.22891313101513
CUBESAT XI-V            
1 28895U 05043F   24267.86188594  .00005012  00000+0  86885-3 0  9999
2 28895  98.2155  43.9586 0015819  48.6029 311.6533 14.68630529  9164
CUTE-1.7+APD II (CO-65) 
1 32785U 08021C   24267.50387327  .00012111  00000+0  10105-2 0  9996
2 32785  97.7649 232.1776 0010369   9.4997 350.6420 14.98682051890195
AAUSAT-II               
1 32788U 08021F   24267.48370975  .00041929  00000+0  16667-2 0  9995
2 32788  97.6024 248.5171 0006668 139.5312 220.6422 15.25154075893267
CANX-2                  
1 32790U 08021H   24267.40674949  .00009005  00000+0  78781-3 0  9993
2 32790  97.7795 230.7400 0012577  19.2584 340.9110 14.96905668889977
SEEDS II (CO-66)        
1 32791U 08021J   24267.45052338  .00019665  00000+0  13076-2 0  9999
2 32791  97.7019 238.3223 0004749  17.4853 342.6537 15.07196836891309
SWISSCUBE               
1 35932U 09051B   24267.62187054  .00003156  00000+0  67205-3 0  9998
2 35932  98.4543 152.8628 0007893  24.8211 335.3367 14.59689875796918
BEESAT-1                
1 35933U 09051C   24267.50992269  .00002733  00000+0  58794-3 0  9991
2 35933  98.4471 153.5249 0006487  38.5980 321.5682 14.59339968796966
ITUPSAT1                
1 35935U 09051E   24267.45895107  .00002528  00000+0  55750-3 0  9991
2 35935  98.4570 153.2024 0008864  42.2192 317.9687 14.58250389796584
TISAT 1                 
1 36799U 10035E   24267.22172789  .00015280  00000+0  10625-2 0  9993
2 36799  98.0734 161.0288 0001521 251.5042 108.6018 15.05605400771792
AEROCUBE 4.5A           
1 38767U 12048K   24267.52111870  .00023430  00000+0  10836-2 0  9993
2 38767  64.6596 357.0663 0112139 345.1916  14.5929 15.14635358275336
AEROCUBE 4.5B           
1 38768U 12048L   24267.38261824  .00074711  00000+0  18941-2 0  9996
2 38768  64.6507 274.2525 0086455 333.3604  26.3098 15.35450775276442
STRAND-1                
1 39090U 13009E   24267.44164198  .00000999  00000+0  35622-3 0  9999
2 39090  98.3818  93.0439 0008206 325.7542  34.3114 14.36290475606348
BRITE-AUSTRIA           
1 39091U 13009F   24267.50776231  .00000640  00000+0  23501-3 0  9990
2 39091  98.3867  92.3837 0009747 332.2319  27.8346 14.35953565606375
NEE-01 PEGASO           
1 39151U 13018B   24267.29814701  .00007168  00000+0  80239-3 0  9991
2 39151  98.0461  25.5018 0015330  81.1749 279.1201 14.87113880616547
ESTCUBE 1               
1 39161U 13021C   24267.65348451  .00004970  00000+0  70631-3 0  9993
2 39161  97.8185 331.1252 0007472 269.5624  90.4730 14.77321175611662
POPACS 1                
1 39268U 13055D   24267.61762463  .00085904  43507-6  13103-2 0  9999
2 39268  80.9774  37.4403 0368090 133.9840 229.2370 15.03303139575268
POPACS 2                
1 39269U 13055E   24267.35643521  .00031854  00000+0  70593-3 0  9990
2 39269  80.9992 132.4956 0533555  22.7194 339.6684 14.61357545569919
POPACS 3                
1 39270U 13055F   24267.19932764  .00013328  00000+0  35745-3 0  9990
2 39270  81.0096 186.6534 0616793 174.0532 186.8449 14.39808535547051
ZACUBE-1 (TSHEPISOSAT)  
1 39417U 13066B   24267.83384465  .00010678  00000+0  10572-2 0  9990
2 39417  97.7443 221.7479 0048226 190.9162 169.1014 14.91147726586274
WNISAT-1                
1 39423U 13066H   24267.60286660  .00002031  00000+0  39019-3 0  9992
2 39423  97.6693  93.9796 0169916  60.4017 301.3992 14.55789477574961
TRITON-1                
1 39427U 13066M   24267.84295665  .00007486  00000+0  10203-2 0  9999
2 39427  97.8354 182.7033 0102213 123.4902 237.6127 14.75355656580948
DELFI-N3XT              
1 39428U 13066N   24267.48511265  .00012273  00000+0  14766-2 0  9995
2 39428  97.8318 183.3501 0098770 128.4293 232.5838 14.80577353580620
GOMX-1                  
1 39430U 13066Q   24267.90866947  .00006327  00000+0  10333-2 0  9994
2 39430  97.7154 136.2965 0136538 299.1758  59.5842 14.65159001577490
CUBEBUG-2 (LO-74)       
1 39440U 13066AA  24267.54923085  .00010633  00000+0  12015-2 0  9996
2 39440  97.8182 209.2134 0066023 313.9513  45.6266 14.85090198582920
NEE-02 KRYSAOR          
1 39441U 13066AB  24267.56843334  .00007986  00000+0  98511-3 0  9990
2 39441  97.8269 204.6944 0072124 337.5124  22.2932 14.81283942582494
FUNCUBE-1 (AO-73)       
1 39444U 13066AE  24267.38662592  .00011982  00000+0  10892-2 0  9994
2 39444  97.7302 224.7199 0046203 170.5295 189.6808 14.94556929584766
UWE-3                   
1 39446U 13066AG  24267.37186090  .00008787  00000+0  93753-3 0  9996
2 39446  97.7894 215.1499 0056077 256.1168 103.3806 14.87907820583291
BRITE-CA1 (TORONTO)     
1 40020U 14033L   24267.80911975  .00004291  00000+0  68545-3 0  9994
2 40020  97.8917  41.5710 0083098 136.7192 224.0582 14.70056624549460
DUCHIFAT-1              
1 40021U 14033M   24267.55560652  .00026038  00000+0  15261-2 0  9998
2 40021  98.0983 256.7670 0015149 120.2359 240.0372 15.11671682558960
NANOSATC-BR1            
1 40024U 14033Q   24267.48857586  .00020243  00000+0  13619-2 0  9995
2 40024  98.0737 243.9405 0005714 169.6007 190.5338 15.06757106558037
QB50P1                  
1 40025U 14033R   24267.68961360  .00015885  00000+0  12033-2 0  9999
2 40025  98.0551 231.9047 0011255 190.7731 169.3253 15.02321891558165
QB50P2                  
1 40032U 14033Y   24267.61483750  .00014735  00000+0  11614-2 0  9999
2 40032  98.0129 222.8379 0009918 145.8603 214.3259 15.00835031557422
PERSEUS-M2              
1 40037U 14033AD  24267.35297664  .00004989  00000+0  50542-3 0  9996
2 40037  97.9280 198.5457 0011456 225.6692 134.3588 14.91346391556457
PERSEUS-M1              
1 40039U 14033AF  24267.52576227  .00004821  00000+0  49065-3 0  9995
2 40039  97.9062 194.4883 0011287 224.6538 135.3772 14.91174567556332
POLYITAN-1              
1 40042U 14033AJ  24267.48248390  .00020132  00000+0  13763-2 0  9999
2 40042  98.0794 236.0752 0013606 149.9741 210.2268 15.06101824557618
TIGRISAT                
1 40043U 14033AK  24267.48281467  .00004899  00000+0  63861-3 0  9999
2 40043  97.7073  66.0903 0053887 344.2613  15.6922 14.79992142551996
AEROCUBE 6A             
1 40045U 14033AM  24267.40673992  .00011414  00000+0  12951-2 0  9995
2 40045  97.6772  77.1780 0048007 319.2270  40.5356 14.85644271552362
AEROCUBE 6B             
1 40046U 14033AN  24267.45073740  .00011513  00000+0  12786-2 0  9992
2 40046  97.6742  76.0165 0046555 313.9359  45.8019 14.86566332552434
CANX-4                  
1 40055U 14034C   24267.80756053  .00003206  00000+0  44444-3 0  9994
2 40055  98.3880 106.6776 0012301 233.2575 126.7506 14.78676212551157
CANX-5                  
1 40056U 14034D   24267.54141065  .00003084  00000+0  42781-3 0  9993
2 40056  98.3883 106.4086 0012294 234.4819 125.5245 14.78684749541899
UKUBE-1                 
1 40074U 14037F   24267.39118561  .00014852  00000+0  13096-2 0  9995
2 40074  98.3456 203.5281 0006963  98.2687 261.9322 14.96520432553450
BRITE-PL2 (HEWELIUSZ)   
1 40119U 14049B   24267.24293275  .00005232  00000+0  54877-3 0  9993
2 40119  97.8850   6.5381 0016139  45.2805 314.9723 14.89870107547179
AEROCUBE 5C             
1 40965U 15058B   24267.82930841  .00009139  00000+0  79842-3 0  9993
2 40965  64.7698  58.5189 0192031 278.4123  79.5260 14.84146197271661
AEROCUBE 7              
1 40966U 15058C   24267.50758556  .00009509  00000+0  79664-3 0  9993
2 40966  64.7676  52.2966 0186294 278.1211  79.8804 14.86347899271718
FOX-1A (AO-85)          
1 40967U 15058D   24267.52517145  .00007232  00000+0  64904-3 0  9995
2 40967  64.7769  73.6882 0190547 274.2555  83.6801 14.83553236 19575
SINOD-D 1               
1 40968U 15058E   24267.42179204  .00010260  00000+0  87378-3 0  9990
2 40968  64.7773  65.7633 0184478 273.2571  84.7449 14.85919869 22406
SNAP-3 ALICE            
1 40970U 15058G   24267.42236575  .00034463  00000+0  21191-2 0  9999
2 40970  64.7717  16.6741 0150385 271.5688  86.8208 15.00875050 20508
LMRST-SAT               
1 40971U 15058H   24267.50422186  .00007217  00000+0  64595-3 0  9997
2 40971  64.7767  69.2993 0191930 275.6886  82.2366 14.83481608 19575
SNAP-3 EDDIE            
1 40972U 15058J   24267.54111468  .00036577  00000+0  22184-2 0  9998
2 40972  64.7689   9.5031 0150715 272.5574  85.8298 15.01291269 22621
PROPCUBE 3              
1 40973U 15058K   24267.47110150  .00009473  00000+0  80711-3 0  9994
2 40973  64.7715  56.2634 0188188 277.0490  80.9251 14.85505364 20620
BISONSAT                
1 40974U 15058L   24267.59854862  .00021426  00000+0  15127-2 0  9993
2 40974  64.7690  26.4272 0166539 274.7761  83.4354 14.94378127 20459
SNAP-3 JIMI             
1 40975U 15058M   24267.80433477  .00018440  00000+0  14445-2 0  9997
2 40975  64.7702  41.6785 0179047 275.9615  82.1116 14.89258542 19701
PROPCUBE 1 (FLORA)      
1 40976U 15058N   24267.50834847  .00006045  00000+0  56494-3 0  9990
2 40976  64.7748  85.2598 0190296 276.9067  81.0427 14.82281800 22364
SINOD-D 3               
1 40977U 15058P   24267.49082609  .00008439  00000+0  74848-3 0  9992
2 40977  64.7740  77.6092 0184028 276.0831  81.9337 14.84643023 20613
HORYU-4                 
1 41340U 16012D   24267.62554682  .00026501  00000+0  11694-2 0  9997
2 41340  31.0023  52.3063 0007178 260.0413  99.9418 15.20579505473127
RAVAN                   
1 41849U 16067B   24267.48785542  .00017706  00000+0  88623-3 0  9990
2 41849  98.0670  91.2002 0012624  55.9787 304.2642 15.17406807430870
CELTEE 1                
1 41850U 16067C   24267.47211041  .00011605  00000+0  74536-3 0  9999
2 41850  98.1099  82.2075 0000900 164.3393 195.7862 15.08623390430235
